# From MPC106342
C/1995 O1 (Hale-Bopp),e,89.0138,283.3102,130.5522,179.2603,0.0004107,0.99494397,0.0000,03/29.7292/1997,2000,g -2.0,4.0
# From NK 1615
P/1996 R2 (Lagerkvist),e,2.6003,40.0318,333.3108,3.775049,0.1343755,0.31403353,88.6023,12/02.0/2020,2000,g 11.5,4.0
# From MPC 30063
P/1997 B1 (Kobayashi),e,12.3396,328.8846,183.3595,8.568010,0.0392992,0.76011139,341.0655,12/02.0/2020,2000,g 15.0,2.0
# From MPC 75703
P/1998 VS24 (LINEAR),e,5.0252,159.0312,244.6755,4.529578,0.1022392,0.24197833,107.2494,12/02.0/2020,2000,g 13.0,2.0
# From NK 731
P/1999 RO28 (LONEOS),e,7.5667,137.8834,231.2694,3.426781,0.1553726,0.67205761,81.5538,12/02.0/2020,2000,g 20.0,2.0
# From MPC 75704
P/1999 XN120 (Catalina),e,5.0297,285.2958,161.8993,4.179001,0.1153706,0.21033900,146.5611,12/02.0/2020,2000,g 13.5,2.0
# From NK 744
P/2000 R2 (LINEAR),e,11.6845,160.2941,176.5164,3.466100,0.1527363,0.53156445,81.4980,12/02.0/2020,2000,g 18.0,4.0
# From MPC 43019
P/2001 H5 (NEAT),e,8.3673,328.6849,224.8683,6.098113,0.0654502,0.59867271,122.4328,12/02.0/2020,2000,g 12.0,4.0
# From MPC 75704
P/2001 Q6 (NEAT),e,56.9026,22.1305,42.9450,7.950746,0.0439635,0.82281682,307.9435,12/02.0/2020,2000,g 13.5,4.0
# From MPC 47727
P/2002 EJ57 (LINEAR),e,4.9761,330.3284,167.3642,6.473122,0.0598458,0.59278040,53.7130,12/02.0/2020,2000,g 12.5,4.0
# From MPEC 2020-SI8
P/2002 T5 (LINEAR),e,30.8529,123.0884,326.7651,7.005685,0.0531531,0.43792743,339.9190,12/02.0/2020,2000,g  8.0,4.0
# From MPC109588
P/2002 T6 (NEAT-LINEAR),e,10.8334,206.4453,219.5990,7.670890,0.0463912,0.56007753,298.3191,12/02.0/2020,2000,g 10.5,4.0
# From MPC 50354
P/2003 F2 (NEAT),e,11.6047,359.0719,191.9271,6.490487,0.0596057,0.54222462,22.9894,12/02.0/2020,2000,g 16.5,2.0
# From MPC 50139
P/2003 QX29 (NEAT),e,11.3898,264.5879,37.4057,8.032493,0.0432941,0.47297427,286.0998,12/02.0/2020,2000,g  8.5,4.0
# From MPC105235
P/2003 T12 (SOHO),e,11.0169,174.5734,219.7690,2.586196,0.2369801,0.76964561,49.5616,12/02.0/2020,2000,g 17.0,4.0
# From MPC 82312
P/2004 A1 (LONEOS),e,10.5516,124.8475,21.4154,7.956007,0.0439199,0.30936582,261.4979,12/02.0/2020,2000,g  6.5,4.0
# From MPC 54558
P/2004 DO29 (Spacewatch-LINEAR),e,14.5317,147.3794,40.7218,7.282852,0.0501478,0.44132283,295.7775,12/02.0/2020,2000,g 13.5,2.0
# From MPC 54823
P/2004 FY140 (LINEAR),e,2.1348,326.7610,242.4584,4.901738,0.0908195,0.16860400,177.7391,12/02.0/2020,2000,g 12.5,2.0
# From MPC 53304
P/2004 R3 (LINEAR-NEAT),e,12.8258,305.4806,38.6500,4.795076,0.0938665,0.26131520,331.9143,12/02.0/2020,2000,g 14.5,4.0
# From MPC 55521
P/2004 V3 (Siding Spring),e,50.4332,356.1161,322.3019,7.143951,0.0516174,0.44632817,303.9981,12/02.0/2020,2000,g 11.5,4.0
# From MPC 75705
P/2004 V5 (LINEAR-Hill),e,19.3449,47.7706,87.7822,7.975986,0.0437550,0.44353712,252.7301,12/02.0/2020,2000,g  8.0,4.0
# From MPC 54164
P/2005 E1 (Tubbiolo),e,4.2637,335.5719,194.1215,7.037603,0.0527919,0.37518353,305.5210,12/02.0/2020,2000,g 10.0,4.0
# From MPC 54823
P/2005 GF8 (LONEOS),e,1.1935,314.8337,285.0854,5.860658,0.0694680,0.51811163,29.8386,12/02.0/2020,2000,g 11.5,4.0
# From MPC 79019
P/2005 J1 (McNaught),e,31.7664,268.8037,338.9576,3.569813,0.1461288,0.56986908,114.1705,12/02.0/2020,2000,g 16.5,4.0
# From MPC 74246
P/2005 L1 (McNaught),e,7.7386,138.2476,149.6987,3.975244,0.1243536,0.20936850,318.2640,12/02.0/2020,2000,g  9.5,4.0
# From MPC 75706
P/2005 S2 (Skiff),e,3.1357,161.1965,229.1577,8.017249,0.0434176,0.19690863,231.0913,12/02.0/2020,2000,g  7.5,4.0
# From MPC 75706
P/2005 SB216 (LONEOS),e,24.0730,1.2359,83.3922,7.127367,0.0517977,0.46333543,262.8793,12/02.0/2020,2000,g 12.0,2.0
# From MPC 55717
P/2005 T2 (Christensen),e,8.2927,260.1573,58.8106,3.845914,0.1306787,0.41639963,31.0539,12/02.0/2020,2000,g 14.5,4.0
# From MPC 73461
P/2005 T3 (Read),e,6.2246,27.7411,7.0143,7.577707,0.0472495,0.17396833,261.2381,12/02.0/2020,2000,g  9.0,4.0
# From MPC 73461
P/2005 T4 (SWAN),e,160.1824,25.6731,41.5774,9.360923,0.0344133,0.92991429,190.7684,12/02.0/2020,2000,g 15.0,4.0
# From MPC 75706
P/2005 T5 (Broughton),e,21.3529,57.0070,304.5257,7.291534,0.0500583,0.55200546,277.1196,12/02.0/2020,2000,g 11.0,4.0
# From MPC 56954
P/2005 W3 (Kowalski),e,16.4178,210.0904,200.6840,6.331810,0.0618603,0.54349588,341.8909,12/02.0/2020,2000,g 12.0,4.0
# From MPEC 2020-W25
P/2005 XA54 (LONEOS-Hill),e,17.1184,143.6711,15.1378,6.051365,0.0662101,0.71014183,356.2146,12/02.0/2020,2000,g 14.0,4.0
# From MPC 75706
P/2005 Y2 (McNaught),e,19.0931,94.5091,194.0312,6.384525,0.0610958,0.47046619,2.5821,12/02.0/2020,2000,g  9.0,4.0
# From MPC 56954
P/2006 F4 (Spacewatch),e,12.4026,183.8759,31.1561,3.526799,0.1488103,0.33939202,72.5226,12/02.0/2020,2000,g 15.0,4.0
# From MPC 75707
P/2006 HR30 (Siding Spring),e,31.8300,309.9021,117.2907,7.811257,0.0451464,0.84202650,230.3413,12/02.0/2020,2000,g 11.0,4.0
# From MPC 75707
P/2006 S4 (Christensen),e,39.5355,36.0945,305.1497,6.311286,0.0621623,0.50798771,334.5937,12/02.0/2020,2000,g 11.0,4.0
# From MPC 75707
P/2007 A2 (Christensen),e,26.4877,300.9067,186.7588,6.324750,0.0619639,0.55756955,314.9272,12/02.0/2020,2000,g 13.5,4.0
# From MPC 59319
P/2007 B1 (Christensen),e,12.3762,77.6666,46.7521,5.819616,0.0702041,0.58092695,356.1641,12/02.0/2020,2000,g 13.5,4.0
# From MPC 75707
P/2007 C2 (Catalina),e,8.6581,275.6249,179.8995,6.994140,0.0532847,0.47003607,256.5213,12/02.0/2020,2000,g 10.0,4.0
# From MPC 82314
P/2007 K2 (Gibbs),e,7.6364,188.6468,347.4690,7.262691,0.0503568,0.68334978,248.1860,12/02.0/2020,2000,g 14.0,4.0
# From MPC 60925
P/2007 Q2 (Gilmore),e,10.2023,172.1600,162.7771,5.655263,0.0732866,0.67027884,0.3682,12/02.0/2020,2000,g 16.0,4.0
# From MPEC 2020-W26
P/2007 R2 (Gibbs),e,1.2135,11.4731,352.3593,3.573042,0.1459308,0.54189013,11.2807,12/02.0/2020,2000,g 17.0,4.0
# From MPC 75708
P/2007 R4 (Garradd),e,20.2257,87.2224,282.6595,5.926701,0.0683100,0.66999121,334.5983,12/02.0/2020,2000,g 14.5,4.0
# From MPC 73462
P/2007 S1 (Zhao),e,5.9632,141.3794,245.7422,3.812805,0.1323845,0.33962550,270.5609,12/02.0/2020,2000,g 13.0,4.0
# From MPC 61994
P/2007 T2 (Kowalski),e,9.7449,3.3751,359.6357,3.047198,0.1852904,0.78522749,159.7717,12/02.0/2020,2000,g 18.5,4.0
# From MPEC 2020-W26
P/2007 VQ11 (Catalina),e,12.3200,163.8177,277.6614,5.426101,0.0779780,0.50327429,5.9781,12/02.0/2020,2000,g 12.0,4.0
# From MPEC 2020-W26
C/2011 KP36 (Spacewatch),e,18.9843,173.2975,180.6582,38.88675,0.0040644,0.87451610,6.7035,12/02.0/2020,2000,g  4.5,4.0
# From MPC 75708
P/2008 CL94 (Lemmon),e,8.3473,33.3316,80.5277,6.160851,0.0644530,0.12026186,341.0569,12/02.0/2020,2000,g  8.0,4.0
# From MPC 75709
P/2008 L2 (Hill),e,25.8565,218.0052,141.2109,6.028657,0.0665845,0.61302118,300.7228,12/02.0/2020,2000,g 12.5,4.0
# From MPC 64114
P/2008 O3 (Boattini),e,32.2493,47.5982,341.0867,8.223230,0.0417965,0.69506020,191.2752,12/02.0/2020,2000,g 13.0,4.0
# From MPC 75709
P/2008 QP20 (LINEAR-Hill),e,7.5215,322.0787,75.6298,3.552247,0.1472141,0.49229015,301.6848,12/02.0/2020,2000,g 15.5,4.0
# From MPC 66204
P/2008 WZ96 (LINEAR),e,7.1121,56.4875,341.8590,3.490680,0.1511259,0.47040445,319.5498,12/02.0/2020,2000,g 13.5,4.0
# From MPC 75710
P/2008 Y3 (McNaught),e,38.7629,262.7904,238.2686,8.045885,0.0431860,0.44553870,188.2488,12/02.0/2020,2000,g  8.5,4.0
# From MPC 75710
P/2009 B1 (Boattini),e,22.2192,297.0914,128.8960,6.735833,0.0563790,0.63464564,245.0202,12/02.0/2020,2000,g 13.0,4.0
# From MPC 75710
P/2009 O3 (Hill),e,16.2641,183.7163,154.3880,7.770634,0.0455008,0.68753283,191.7335,12/02.0/2020,2000,g 12.5,4.0
# From MPC 98557
P/2009 Q1 (Hill),e,14.5054,173.9589,157.1250,5.520101,0.0759947,0.49476676,319.1023,12/02.0/2020,2000,g 11.5,4.0
# From MPEC 2020-SI8
P/2009 Q4 (Boattini),e,11.0153,127.4640,320.2350,3.128005,0.1781570,0.58258316,355.5913,12/02.0/2020,2000,g 15.5,4.0
# From MPC 68902
P/2009 Q5 (McNaught),e,40.9738,160.2628,209.0195,7.438093,0.0485861,0.60866829,199.6144,12/02.0/2020,2000,g 10.0,4.0
# From MPC112389
P/2009 T2 (La Sagra),e,27.5460,215.7907,216.4213,7.724370,0.0459102,0.76507918,183.3005,12/02.0/2020,2000,g 14.0,4.0
# From MPC 75711
P/2009 U4 (McNaught),e,10.0809,55.3578,259.8411,5.083427,0.0859942,0.67609623,354.7449,12/02.0/2020,2000,g 14.0,4.0
# From MPC105235
P/2009 WX51 (Catalina),e,9.5955,31.6830,118.0708,3.080592,0.1822858,0.74030895,2.8506,12/02.0/2020,2000,g 19.0,2.0
# From MPC 74247
P/2009 Y2 (Kowalski),e,29.9294,262.0241,172.1709,6.549042,0.0588081,0.63586709,230.9559,12/02.0/2020,2000,g 13.0,4.0
# From MPC 75711
P/2010 A3 (Hill),e,14.8635,64.0767,41.9496,6.075614,0.0658141,0.73327475,257.1506,12/02.0/2020,2000,g 14.0,4.0
# From MPC 72851
P/2010 A5 (LINEAR),e,5.7979,277.6637,307.0880,5.083455,0.0859935,0.66502485,332.5263,12/02.0/2020,2000,g 13.0,4.0
# From MPC105235
P/2010 B2 (WISE),e,8.9306,0.8479,155.9190,3.109945,0.1797111,0.47989272,359.5387,12/02.0/2020,2000,g 17.0,4.0
# From MPC 75008
P/2010 C1 (Scotti),e,9.1282,141.8862,3.7771,7.102805,0.0520666,0.25862399,210.0201,12/02.0/2020,2000,g  9.5,4.0
# From MPC 75008
P/2010 D2 (WISE),e,57.0848,319.8918,120.0941,6.715666,0.0566331,0.45085700,223.2246,12/02.0/2020,2000,g 16.0,4.0
# From MPC 75009
P/2010 E2 (Jarnac),e,15.4057,177.8250,8.3703,8.637940,0.0388230,0.72024292,151.2313,12/02.0/2020,2000,g 14.0,4.0
# From MPC 72851
P/2010 H2 (Vales),e,14.2730,64.2064,128.1949,3.834402,0.1312676,0.19567055,154.8790,12/02.0/2020,2000,g  6.0,4.0
# From MPC 70361
P/2010 H3 (SOHO),e,23.0898,77.1067,26.1332,3.059763,0.1841502,0.98548789,0.0000,02/07.9641/2021,2000,g 20.0,2.0
# From MPC 73463
P/2010 H4 (Scotti),e,2.3189,44.7471,179.5602,6.589664,0.0582652,0.26755757,222.4391,12/02.0/2020,2000,g 10.5,4.0
# From MPC 74637
P/2010 H5 (Scotti),e,14.0671,24.8089,175.2809,7.158732,0.0514576,0.15366282,200.1308,12/02.0/2020,2000,g 13.0,2.0
# From MPC 98558
P/2010 J3 (McMillan),e,13.2892,106.4097,157.5849,8.970233,0.0366858,0.72725026,137.4606,12/02.0/2020,2000,g 11.0,4.0
# From MPC 84315
P/2010 JC81 (WISE),e,38.7191,30.8424,12.4426,8.111159,0.0426658,0.77669618,149.9642,12/02.0/2020,2000,g  9.0,4.0
# From MPC 74248
